STARLINK-32876          
1 63151U 25043V   26068.20620476  .00035523  00000+0  12931-2 0  9994
2 63151  43.0031  18.5061 0002253 243.8999 116.1621 15.27605565 57299
2025-313BD              
1 67299U 25313BD  26068.62968741  .00081010  00000+0  27634-2 0  9995
2 67299  97.3970 145.2850 0007287 333.4514  26.6352 15.30002360 10838
